[{"OBJECT_NAME":"IRIDIUM 140","OBJECT_ID":"2018-030D","EPOCH":"2026-03-09T17:10:03.364608","MEAN_MOTION":14.34217721,"ECCENTRICITY":0.00019229,"INCLINATION":86.4003,"RA_OF_ASC_NODE":332.0359,"ARG_OF_PERICENTER":85.7585,"MEAN_ANOMALY":274.3831,"EPHEMERIS_TYPE":0,"CLASSIFICATION_TYPE":"U","NORAD_CAT_ID":43252,"ELEMENT_SET_NO":999,"REV_AT_EPOCH":41593,"BSTAR":-8.82061e-7,"MEAN_MOTION_DOT":1.7e-7,"MEAN_MOTION_DDOT":0},{"OBJECT_NAME":"SL-8 R\/B","OBJECT_ID":"1994-083B","EPOCH":"2026-03-09T20:57:01.039680","MEAN_MOTION":14.34423441,"ECCENTRICITY":0.00050759,"INCLINATION":74.0308,"RA_OF_ASC_NODE":226.4362,"ARG_OF_PERICENTER":13.4144,"MEAN_ANOMALY":102.3454,"EPHEMERIS_TYPE":0,"CLASSIFICATION_TYPE":"U","NORAD_CAT_ID":23432,"ELEMENT_SET_NO":999,"REV_AT_EPOCH":63291,"BSTAR":9.6979735e-5,"MEAN_MOTION_DOT":2.47e-6,"MEAN_MOTION_DDOT":0}]
